BEESAT-4                
1 41619U 16040W   22359.37936636  .00021256  00000+0  56970-3 0  9991
2 41619  97.1901  45.3886 0008562 141.0568 219.1296 15.37974922349993
CAS-2T & KS-1Q          
1 41847U 16066G   22359.45101183  .00000774  00000+0  12549-3 0  9998
2 41847  98.5289  63.7237 0362359 358.4881   1.5181 14.38973639321814
NAYIF-1 (EO-88)         
1 42017U 17008BX  22359.44975318  .00027169  00000+0  61612-3 0  9995
2 42017  97.2450  63.4682 0002642 285.4535  74.6421 15.43044196326437
ZHUHAI-1 02 (CAS-4B)    
1 42759U 17034B   22359.48778593  .00006264  00000+0  35415-3 0  9992
2 42759  43.0184 358.5367 0009232  52.8527  83.8969 15.13656814305282
ZHUHAI-1 01 (CAS-4A)    
1 42761U 17034D   22359.38047120  .00006641  00000+0  37358-3 0  9996
2 42761  43.0178 357.7732 0009916  52.8563  83.9976 15.13757523305271
MAX VALIER SAT          
1 42778U 17036P   22359.07810230  .00011832  00000+0  39854-3 0  9993
2 42778  97.1816  33.7984 0010335  17.3582 342.8010 15.30850777306026
RADFXSAT (FOX-1B)       
1 43017U 17073E   22359.16348259  .00006230  00000+0  46077-3 0  9999
2 43017  97.6525 245.4796 0241604 282.6322  74.7977 14.83087103275369
FOX-1D (AO-92)          
1 43137U 18004AC  22359.16273623  .00015279  00000+0  46468-3 0  9996
2 43137  97.3511  72.9397 0008080  51.4075 308.7890 15.34090477275538
DIWATA-2B               
1 43678U 18084H   22359.40757157  .00001383  00000+0  14017-3 0  9996
2 43678  97.9951 135.2828 0010262  23.3679 336.8054 14.92578658226330
ES'HAIL 2               
1 43700U 18090A   22359.48875358  .00000152  00000+0  00000+0 0  9997
2 43700   0.0187  68.9205 0001369 245.2765 341.5257  1.00272599 14942
FOX-1CLIFF (AO-95)      
1 43770U 18099N   22359.43591799  .00003011  00000+0  26262-3 0  9991
2 43770  97.5979  60.7060 0013640 359.2963   0.8238 14.97527223221580
ITASAT 1                
1 43786U 18099AE  22359.41866896  .00001991  00000+0  17524-3 0  9995
2 43786  97.6021  61.6988 0014487 353.7526   6.3513 14.97533346221624
JY1SAT (JO-97)          
1 43803U 18099AX  22359.42648559  .00002805  00000+0  24024-3 0  9998
2 43803  97.5974  61.5436 0014328 350.2565   9.8378 14.98277911221650
UWE-4                   
1 43880U 18111E   22359.48441880  .00004353  00000+0  35915-3 0  9993
2 43880  97.6580 262.4498 0013294  50.3294 309.9100 14.99461968218311
NEXUS (FO-99)           
1 43937U 19003F   22359.33956213  .00017887  00000+0  50114-3 0  9996
2 43937  97.1101  25.7019 0017428 182.8873 177.2275 15.36511128219220
PSAT2 (NO-104)          
1 44354U 19036R   22359.07719839  .00191448  38863-5  77061-3 0  9998
2 44354  28.5186 270.7671 0124253   1.5148 358.5820 15.73941431194348
JAISAT-1                
1 44419U 19038F   22359.41627303  .00010934  00000+0  49194-3 0  9996
2 44419  97.6592 331.7880 0017107 183.9726 176.1376 15.21152202192042
DUCHIFAT-3              
1 44854U 19089C   22359.55576334  .00005923  00000+0  44035-3 0  9998
2 44854  36.9653  46.2080 0008023 332.1030 178.3836 15.02721409166677
CAS-6 (TIANQIN 1)       
1 44881U 19093C   22359.20110529  .00000850  00000+0  11370-3 0  9995
2 44881  97.8797  75.5495 0013569 287.6121  72.3591 14.81990502163028
RS-44 & BREEZE-KM R/B   
1 44909U 19096E   22359.58037317  .00000032  00000+0  88616-4 0  9993
2 44909  82.5216 103.3089 0216771 232.6664 125.4513 12.79717299139951
ORBITAL FACTORY 2 (OF-2)
1 45113U 19071C   22359.54733486  .00055018  00000+0  63599-3 0  9996
2 45113  51.6312 190.5088 0010389 168.4840 191.6393 15.61267004163045
HUSKYSAT-1 (HO-107)     
1 45119U 19071J   22358.94007654  .00047315  00000+0  62892-3 0  9992
2 45119  51.6316 196.1678 0010367 159.5015 200.6395 15.57653118162900
BY70-2                  
1 45857U 20042B   22359.48718813  .00011353  00000+0  14073-2 0  9997
2 45857  97.9426  74.7212 0009661 210.7977 149.2613 14.82806534133730
SALSAT                  
1 46495U 20068K   22359.31914043  .00003325  00000+0  23470-3 0  9991
2 46495  97.7524 300.9905 0016146 356.4104   3.7004 15.05555242122891
BY70-3                  
1 46839U 20079N   22359.45267538  .00056436  00000+0  84465-3 0  9992
2 46839  97.1784  70.1740 0003912  13.1843  41.5958 15.54797978119771
RADFXSAT-2 (AO-109)     
1 47311U 21002C   22359.47601722  .00010404  00000+0  36511-3 0  9998
2 47311  60.6849   1.3040 0039162  87.8598 272.6976 15.29268367107630
UVSQ-SAT                
1 47438U 21006AB  22359.39159508  .00007769  00000+0  38064-3 0  9998
2 47438  97.4125  54.5142 0010572 339.0011  21.0788 15.18376173106228
DIY-1 (ARDUIQUBE)       
1 47963U 21022AH  22359.46174060  .00027826  00000+0  12203-2 0  9999
2 47963  97.5175 259.3392 0012848 182.3972 177.7204 15.21869058 95909
XW-3 (CAS-9)            
1 50466U 21131B   22359.51787334  .00000275  00000+0  10433-3 0  9995
2 50466  98.5673  76.5496 0003521 303.7960  56.2891 14.38602374 52384
TEVEL-3                 
1 50988U 22002E   22359.42327428  .00011753  00000+0  58674-3 0  9998
2 50988  97.4604  63.3368 0010170 118.2070  10.2125 15.17605303 52345
TEVEL-8                 
1 50989U 22002F   22359.43540881  .00011833  00000+0  59157-3 0  9996
2 50989  97.4621  63.3884 0010400 117.5031  12.3524 15.17549605 52341
TEVEL-5                 
1 50998U 22002Q   22359.44623645  .00012266  00000+0  60201-3 0  9990
2 50998  97.4603  63.5775 0011892 113.6181  16.7776 15.18170961 52366
TEVEL-6                 
1 50999U 22002R   22359.44402855  .00012303  00000+0  60372-3 0  9990
2 50999  97.4595  63.5719 0011938 113.7628  10.0265 15.18177946 52363
TEVEL-1                 
1 51013U 22002AF  22359.44057870  .00011826  00000+0  59089-3 0  9993
2 51013  97.4600  63.3178 0009788 116.8291  75.3383 15.17576109 52341
TEVEL-7                 
1 51062U 22002CG  22359.43720082  .00011919  00000+0  59585-3 0  9992
2 51062  97.4613  63.3691 0010406 116.7801  11.6503 15.17550539 52340
TEVEL-4                 
1 51063U 22002CH  22359.43907909  .00011902  00000+0  59533-3 0  9993
2 51063  97.4619  63.3657 0010442 116.6821  11.1485 15.17530559 52344
TEVEL-2                 
1 51069U 22002CP  22359.42518723  .00011888  00000+0  59347-3 0  9996
2 51069  97.4593  63.3164 0009950 117.4971  11.4937 15.17602564 52342
GREENCUBE               
1 53106U 22080B   22354.06292525 -.00000003  00000+0  00000+0 0  9996
2 53106  70.1740  21.9554 0009007 225.1214 134.8715  6.42557574 10246
YUZGU 9 (RS3S)          
1 53308U 98067TT  22359.55241898  .00241910  00000+0  14831-2 0  9997
2 53308  51.6375  97.8120 0005787 302.6190 236.2911 15.76010896 24545
YUZGU 7 (RS1S)          
1 53309U 98067TU  22359.42468905  .00199788  00000+0  11763-2 0  9990
2 53309  51.6326  98.0630 0006284 300.7108  59.3273 15.77049125 24488
YUZGU 11 (RS5S)         
1 53310U 98067TV  22359.32881544  .00190096  00000+0  11720-2 0  9995
2 53310  51.6349  98.9337 0005834 296.9478  63.0926 15.76037601 24497
YUZGU 12 (RS6S)         
1 53311U 98067TW  22359.45294256  .00206583  00000+0  11508-2 0  9991
2 53311  51.6311  97.4958 0005812 303.3467  56.6977 15.78274213 24541
TSIOLKOVSKY-RYAZAN 1 (*)
1 53312U 98067TX  22359.36890410  .00191211  00000+0  11485-2 0  9991
2 53312  51.6319  98.4500 0006552 299.8471  60.1877 15.76621610 24465
TSIOLKOVSKY-RYAZAN 2 (*)
1 53313U 98067TY  22359.48935780  .00183856  00000+0  10981-2 0  9991
2 53313  51.6339  97.7563 0006230 303.6858  56.3548 15.76774697 24539
YUZGU 10 (RS4S)         
1 53321U 98067TZ  22359.37912481  .00181109  00000+0  11025-2 0  9990
2 53321  51.6345  98.5179 0005896 299.0364  61.0045 15.76353905 24512
RS29S (SXC3-2110 CYCLO*)
1 53373U 22096D   22359.42652196  .00016425  00000+0  60402-3 0  9998
2 53373  97.4283 260.0658 0003297  66.1706  46.8131 15.27957934 21064
RS32S (SXC3-212 MONITO*)
1 53374U 22096E   22359.41959483  .00015482  00000+0  56962-3 0  9995
2 53374  97.4280 260.0707 0003092  61.9244  58.1378 15.27955012 21064
RS34S (SXC3-218 KUZBAS*)
1 53375U 22096F   22359.43690934  .00012547  00000+0  46913-3 0  9995
2 53375  97.4286 260.0515 0003266  63.0874  51.1275 15.27471332 21060
RS23S (SXC3-21 UTMN)    
1 53376U 22096G   22359.42784213  .00013924  00000+0  51845-3 0  9999
2 53376  97.4286 260.0529 0003204  60.9596  27.2665 15.27585513 21069
RS28S (SXC3-214 MIET-A*)
1 53377U 22096H   22359.42337787  .00013107  00000+0  48972-3 0  9990
2 53377  97.4286 260.0487 0003409  59.3273   1.3074 15.27483994 21061
RS26S (KAI-1)           
1 53378U 22096J   22359.44236140  .00011559  00000+0  43566-3 0  9997
2 53378  97.4287 260.0470 0003157  55.6993  63.9851 15.27228005 21060
RS19S (SXC3-219 ISOI)   
1 53381U 22096M   22359.45580023  .00013359  00000+0  49115-3 0  9990
2 53381  97.4287 260.1776 0003637 350.9076 123.9278 15.28012222 21074
RS21S (CUBESX-HSE-2)    
1 53383U 22096P   22359.38572876  .00013785  00000+0  50564-3 0  9994
2 53383  97.4291 260.1204 0003670 350.8606 120.8209 15.28081358 21067
RS30S (SXC3-217 SIREN)  
1 53384U 22096Q   22359.64490285  .00012516  00000+0  46252-3 0  9997
2 53384  97.4289 260.3636 0003892 346.9415  76.9971 15.27856832 21104
RS20S (GEOSCAN-EDELVEIS)
1 53385U 22096R   22359.40473126  .00017336  00000+0  61799-3 0  9995
2 53385  97.4280 260.2329 0004245 346.5684 103.6831 15.28965243 21102
RS33S (SXC3-215 VIZARD) 
1 53386U 22096S   22359.42756699  .00019868  00000+0  68807-3 0  9996
2 53386  97.4282 260.3636 0004839 343.7532 131.0773 15.29879144 21102
CAS-5A (FO-118)         
1 54684U 22167C   22359.44899102  .00008508  00000+0  54122-3 0  9990
2 54684  97.5390 134.1633 0014318 207.3397 240.8688 15.08961866  2436
CAS-10                  
1 54816U 21035C   22359.60532587  .00070067  00000+0  78685-3 0  9998
2 54816  41.4770 133.5597 0007614 240.9673 119.0409 15.61637489  1051
